NORAD_CAT_ID,OBJECT_NAME,OBJECT_TYPE,EPOCH,MEAN_MOTION,ECCENTRICITY,INCLINATION,RA_OF_ASC_NODE,ARG_OF_PERICENTER,MEAN_ANOMALY,BSTAR,MEAN_MOTION_DOT,MEAN_MOTION_DDOT,TLE_LINE0,TLE_LINE1,TLE_LINE2,SEMIMAJOR_AXIS,PERIOD,APOGEE,PERIGEE,DECAYED
54096.0,STARLINK-5188,PAYLOAD,2023-10-16 07:18:49,15.08847654,0.0001694,53.2168,303.6691,92.7979,267.3207,0.00028379,4.232e-05,0.0,0 STARLINK-5188,1 54096U 22136AX  23289.30473660  .00004232  00000-0  28379-3 0  9994,2 54096  53.2168 303.6691 0001694  92.7979 267.3207 15.08847654 55300,6917.857,95.437,540.894,538.55,0.0
54096.0,STARLINK-5188,PAYLOAD,2023-10-16 10:29:35,15.08854247,0.000168,53.2164,303.0755,100.4728,259.6453,0.00051676,7.949e-05,0.0,0 STARLINK-5188,1 54096U 22136AX  23289.43721546  .00007949  00000-0  51676-3 0  9991,2 54096  53.2164 303.0755 0001680 100.4728 259.6453 15.08854247 54857,6917.837,95.437,540.864,538.54,0.0
54096.0,STARLINK-5188,PAYLOAD,2023-10-17 07:09:36,15.08848363,0.0002199,53.2182,299.2054,111.3158,248.8069,0.000306,4.586e-05,0.0,0 STARLINK-5188,1 54096U 22136AX  23290.29833645  .00004586  00000-0  30600-3 0  9999,2 54096  53.2182 299.2054 0002199 111.3158 248.8069 15.08848363 55451,6917.855,95.437,541.241,538.199,0.0
54096.0,STARLINK-5188,PAYLOAD,2023-10-17 18:17:18,15.08841062,0.0001799,53.2175,297.1249,98.655,261.4646,0.00017802,2.546e-05,0.0,0 STARLINK-5188,1 54096U 22136AX  23290.76202175  .00002546  00000-0  17802-3 0  9992,2 54096  53.2175 297.1249 0001799  98.6550 261.4646 15.08841062 55051,6917.877,95.437,540.987,538.498,0.0
54096.0,STARLINK-5188,PAYLOAD,2023-10-18 10:11:09,15.08841898,0.0001803,53.2173,294.1502,109.1894,250.9293,8.6574e-05,1.09e-05,0.0,0 STARLINK-5188,1 54096U 22136AX  23291.42441982  .00001090  00000-0  86574-4 0  9993,2 54096  53.2173 294.1502 0001803 109.1894 250.9293 15.08841898 55624,6917.875,95.437,540.987,538.492,0.0
54096.0,STARLINK-5188,PAYLOAD,2023-10-19 10:01:56,15.08854654,0.0001706,53.2173,289.6915,93.424,266.6947,0.00038939,5.917e-05,0.0,0 STARLINK-5188,1 54096U 22136AX  23292.41801540  .00005917  00000-0  38939-3 0  9996,2 54096  53.2173 289.6915 0001706  93.4240 266.6947 15.08854654 55302,6917.836,95.437,540.881,538.52,0.0
54096.0,STARLINK-5188,PAYLOAD,2023-10-19 16:23:29,15.08842286,0.0001756,53.2177,288.5014,99.3888,260.7302,0.00014074,1.953e-05,0.0,0 STARLINK-5188,1 54096U 22136AX  23292.68297967  .00001953  00000-0  14074-3 0  9997,2 54096  53.2177 288.5014 0001756  99.3888 260.7302 15.08842286 55816,6917.873,95.437,540.953,538.524,0.0
54096.0,STARLINK-5188,PAYLOAD,2023-10-20 05:06:34,15.08847359,0.0001809,53.2173,286.1226,104.4791,255.6402,0.00024041,3.541e-05,0.0,0 STARLINK-5188,1 54096U 22136AX  23293.21289761  .00003541  00000-0  24041-3 0  9990,2 54096  53.2173 286.1226 0001809 104.4791 255.6402 15.08847359 55428,6917.858,95.437,540.974,538.471,0.0
54096.0,STARLINK-5188,PAYLOAD,2023-10-20 22:35:49,15.08837269,0.0001645,53.2176,282.8534,98.1619,261.956,7.7317e-06,-1.65e-06,0.0,0 STARLINK-5188,1 54096U 22136AX  23293.94154142 -.00000165  00000-0  77317-5 0  9990,2 54096  53.2176 282.8534 0001645  98.1619 261.9560 15.08837269 55538,6917.889,95.438,540.892,538.616,0.0
54096.0,STARLINK-5188,PAYLOAD,2023-10-21 06:32:45,15.08832741,0.0001576,53.2181,281.367,98.9301,261.187,2.6255e-05,1.3e-06,0.0,0 STARLINK-5188,1 54096U 22136AX  23294.27274523  .00000130  00000-0  26255-4 0  9998,2 54096  53.2181 281.3670 0001576  98.9301 261.1870 15.08832741 55589,6917.903,95.438,540.858,538.677,0.0
54096.0,STARLINK-5188,PAYLOAD,2023-10-22 04:48:08,15.08848703,0.0001537,53.217,277.202,98.2486,261.8681,0.00021087,3.07e-05,0.0,0 STARLINK-5188,1 54096U 22136AX  23295.20009843  .00003070  00000-0  21087-3 0  9996,2 54096  53.2170 277.2020 0001537  98.2486 261.8681 15.08848703 56194,6917.854,95.437,540.782,538.656,0.0
54096.0,STARLINK-5188,PAYLOAD,2023-10-22 07:58:54,15.08855082,0.0001564,53.2176,276.6079,99.0541,261.0628,0.0004153,6.33e-05,0.0,0 STARLINK-5188,1 54096U 22136AX  23295.33257730  .00006330  00000-0  41530-3 0  9997,2 54096  53.2176 276.6079 0001564  99.0541 261.0628 15.08855082 55749,6917.834,95.437,540.781,538.617,0.0
54096.0,STARLINK-5188,PAYLOAD,2023-10-22 15:55:50,15.08844559,0.0001829,53.2173,275.12,78.7493,281.3704,0.00016579,2.352e-05,0.0,0 STARLINK-5188,1 54096U 22136AX  23295.66378180  .00002352  00000-0  16579-3 0  9991,2 54096  53.2173 275.1200 0001829  78.7493 281.3704 15.08844559 56265,6917.866,95.437,540.997,538.466,0.0
54096.0,STARLINK-5188,PAYLOAD,2023-10-23 04:38:56,15.08835316,0.0001661,53.217,272.7435,85.705,274.4132,-5.0838e-05,-1.097e-05,0.0,0 STARLINK-5188,1 54096U 22136AX  23296.19370505 -.00001097  00000-0 -50838-4 0  9997,2 54096  53.2170 272.7435 0001661  85.7050 274.4132 15.08835316 56344,6917.895,95.438,540.909,538.611,0.0
54096.0,STARLINK-5188,PAYLOAD,2023-10-23 06:14:19,15.08839016,0.0001588,53.2168,272.4466,85.0652,275.0521,9.6439e-05,1.247e-05,0.0,0 STARLINK-5188,1 54096U 22136AX  23296.25994464  .00001247  00000-0  96439-4 0  9992,2 54096  53.2168 272.4466 0001588  85.0652 275.0521 15.08839016 55889,6917.883,95.438,540.847,538.65,0.0
54096.0,STARLINK-5188,PAYLOAD,2023-10-24 04:29:43,15.08847815,0.0001513,53.2162,268.2832,91.1432,268.9734,0.0006471,0.00010028,0.0,0 STARLINK-5188,1 54096U 22136AX  23297.18730726  .00010028  00000-0  64710-3 0  9997,2 54096  53.2162 268.2832 0001513  91.1432 268.9734 15.08847815 56496,6917.857,95.437,540.768,538.675,0.0
54096.0,STARLINK-5188,PAYLOAD,2023-10-25 04:20:30,15.08851759,0.0001715,53.2171,263.8223,93.1397,266.9792,0.00041724,6.361e-05,0.0,0 STARLINK-5188,1 54096U 22136AX  23298.18090489  .00006361  00000-0  41724-3 0  9998,2 54096  53.2171 263.8223 0001715  93.1397 266.9792 15.08851759 56648,6917.844,95.437,540.896,538.523,0.0
54096.0,STARLINK-5188,PAYLOAD,2023-10-26 04:11:17,15.08845361,0.0001575,53.216,259.3599,92.5551,267.5621,0.00021458,3.129e-05,0.0,0 STARLINK-5188,1 54096U 22136AX  23299.17450737  .00003129  00000-0  21458-3 0  9995,2 54096  53.2160 259.3599 0001575  92.5551 267.5621 15.08845361 56797,6917.864,95.437,540.819,538.639,0.0
54096.0,STARLINK-5188,PAYLOAD,2023-10-26 07:22:03,15.08846775,0.0001586,53.2159,258.765,92.2919,267.8255,0.00023837,3.508e-05,0.0,0 STARLINK-5188,1 54096U 22136AX  23299.30698681  .00003508  00000-0  23837-3 0  9996,2 54096  53.2159 258.7650 0001586  92.2919 267.8255 15.08846775 56340,6917.86,95.437,540.822,538.628,0.0
54096.0,STARLINK-5188,PAYLOAD,2023-10-27 04:02:02,15.08907,0.0001412,53.2174,254.9012,99.7606,260.3545,0.0014478,0.00022871,0.0,0 STARLINK-5188,1 54096U 22136AX  23300.16808397  .00022871  00000-0  14478-2 0  9994,2 54096  53.2174 254.9012 0001412  99.7606 260.3545 15.08907000 56945,6917.676,95.433,540.517,538.564,0.0
54096.0,STARLINK-5188,PAYLOAD,2023-10-27 07:12:49,15.08860744,0.0001425,53.2174,254.3051,90.2281,269.8874,0.00048486,7.441e-05,0.0,0 STARLINK-5188,1 54096U 22136AX  23300.30057836  .00007441  00000-0  48486-3 0  9997,2 54096  53.2174 254.3051 0001425  90.2281 269.8874 15.08860744 56965,6917.817,95.436,540.668,538.696,0.0
54096.0,STARLINK-5188,PAYLOAD,2023-10-27 13:34:22,15.08851049,0.0001626,53.217,253.1121,73.3464,286.7707,0.00023054,3.384e-05,0.0,0 STARLINK-5188,1 54096U 22136AX  23300.56554195  .00003384  00000-0  23054-3 0  9991,2 54096  53.2170 253.1121 0001626  73.3464 286.7707 15.08851049 56538,6917.847,95.437,540.836,538.587,0.0
54096.0,STARLINK-5188,PAYLOAD,2023-10-27 21:31:19,15.08827799,0.000134,53.2165,251.6276,73.469,286.6449,-0.000183,-3.198e-05,0.0,0 STARLINK-5188,1 54096U 22136AX  23300.89675182 -.00003198  00000-0 -18300-3 0  9990,2 54096  53.2165 251.6276 0001340  73.4690 286.6449 15.08827799 57056,6917.918,95.438,540.71,538.856,0.0
54096.0,STARLINK-5188,PAYLOAD,2023-10-28 00:42:05,15.08836607,0.0001464,53.217,251.0336,78.6411,281.4746,3.0009e-06,-2.4e-06,0.0,0 STARLINK-5188,1 54096U 22136AX  23301.02922944 -.00000240  00000-0  30009-5 0  9993,2 54096  53.2170 251.0336 0001464  78.6411 281.4746 15.08836607 57071,6917.891,95.438,540.769,538.743,0.0
54096.0,STARLINK-5188,PAYLOAD,2023-10-28 13:25:10,15.08837879,0.0001506,53.2162,248.657,83.5241,276.5923,0.00014192,1.971e-05,0.0,0 STARLINK-5188,1 54096U 22136AX  23301.55915081  .00001971  00000-0  14192-3 0  9999,2 54096  53.2162 248.6570 0001506  83.5241 276.5923 15.08837879 56687,6917.887,95.438,540.794,538.71,0.0
54096.0,STARLINK-5188,PAYLOAD,2023-10-28 21:22:06,15.08837814,0.0001492,53.2165,247.1693,82.1532,277.9629,0.00021747,3.175e-05,0.0,0 STARLINK-5188,1 54096U 22136AX  23301.89035235  .00003175  00000-0  21747-3 0  9992,2 54096  53.2165 247.1693 0001492  82.1532 277.9629 15.08837814 56735,6917.887,95.438,540.784,538.72,0.0
54096.0,STARLINK-5188,PAYLOAD,2023-10-29 03:43:38,15.08856832,0.0001515,53.2175,245.9802,92.4038,267.7127,0.00079855,0.0001245,0.0,0 STARLINK-5188,1 54096U 22136AX  23302.15530775  .00012450  00000-0  79855-3 0  9990,2 54096  53.2175 245.9802 0001515  92.4038 267.7127 15.08856832 57243,6917.829,95.436,540.742,538.646,0.0
54096.0,STARLINK-5188,PAYLOAD,2023-10-29 13:15:57,15.08849915,0.0001618,53.2181,244.1943,81.9972,278.1203,0.00053737,8.277e-05,0.0,0 STARLINK-5188,1 54096U 22136AX  23302.55274824  .00008277  00000-0  53737-3 0  9997,2 54096  53.2181 244.1943 0001618  81.9972 278.1203 15.08849915 56830,6917.85,95.437,540.834,538.596,0.0
54096.0,STARLINK-5188,PAYLOAD,2023-10-29 19:37:30,15.08844752,0.0002348,53.2184,243.0072,87.0825,273.0436,0.00023486,3.452e-05,0.0,0 STARLINK-5188,1 54096U 22136AX  23302.81771120  .00003452  00000-0  23486-3 0  9995,2 54096  53.2184 243.0072 0002348  87.0825 273.0436 15.08844752 57342,6917.866,95.437,541.355,538.107,0.0
54096.0,STARLINK-5188,PAYLOAD,2023-10-30 03:34:26,15.08811628,0.0001453,53.2183,241.518,91.511,268.6049,-0.00033846,-5.666e-05,0.0,0 STARLINK-5188,1 54096U 22136AX  23303.14892203 -.00005666  00000-0 -33846-3 0  9990,2 54096  53.2183 241.5180 0001453  91.5110 268.6049 15.08811628 57398,6917.967,95.439,540.837,538.827,0.0
